$$SOE
2461288.500000000, A.D. 2026-Sep-05 00:00:00.0000, -4.087269815392986E+08, -1.364110500888576E+08, -3.853185528357030E+07,
2461295.500000000, A.D. 2026-Sep-12 00:00:00.0000, -4.038273486573102E+08, -1.455436761993612E+08, -3.817834655539286E+07,
2461302.500000000, A.D. 2026-Sep-19 00:00:00.0000, -3.986827698502835E+08, -1.545879868362738E+08, -3.780167740679745E+07,
2461309.500000000, A.D. 2026-Sep-26 00:00:00.0000, -3.932935228361727E+08, -1.635373958834617E+08, -3.740180659933760E+07,
2461316.500000000, A.D. 2026-Oct-03 00:00:00.0000, -3.876600377271725E+08, -1.723852172720269E+08, -3.697870582365645E+07,
2461323.500000000, A.D. 2026-Oct-10 00:00:00.0000, -3.817829043965368E+08, -1.811246658498047E+08, -3.653236036712662E+07,
2461330.500000000, A.D. 2026-Oct-17 00:00:00.0000, -3.756628801470978E+08, -1.897488586631331E+08, -3.606276981279947E+07,
2461337.500000000, A.D. 2026-Oct-24 00:00:00.0000, -3.693008976455614E+08, -1.982508167037773E+08, -3.556994877481103E+07,
2461344.500000000, A.D. 2026-Oct-31 00:00:00.0000, -3.626980730179216E+08, -2.066234672137670E+08, -3.505392768257523E+07,
2461351.500000000, A.D. 2026-Nov-07 00:00:00.0000, -3.558557137603377E+08, -2.148596465049523E+08, -3.451475363799864E+07,
2461358.500000000, A.D. 2026-Nov-14 00:00:00.0000, -3.487753262545115E+08, -2.229521024384299E+08, -3.395249129082899E+07,
2461365.500000000, A.D. 2026-Nov-21 00:00:00.0000, -3.414586246857741E+08, -2.308934959155840E+08, -3.336722350910690E+07,
2461372.500000000, A.D. 2026-Nov-28 00:00:00.0000, -3.339075423458908E+08, -2.386764044246444E+08, -3.275905199783538E+07,
2461379.500000000, A.D. 2026-Dec-05 00:00:00.0000, -3.261242416840696E+08, -2.462933283368162E+08, -3.212809825032444E+07,
2461386.500000000, A.D. 2026-Dec-12 00:00:00.0000, -3.181111229213073E+08, -2.537366968779528E+08, -3.147450459130533E+07,
2461393.500000000, A.D. 2026-Dec-19 00:00:00.0000, -3.098708330898252E+08, -2.609988738055228E+08, -3.079843513566001E+07,
2461400.500000000, A.D. 2026-Dec-26 00:00:00.0000, -3.014062756093841E+08, -2.680721636961674E+08, -3.010007671785754E+07,
2461407.500000000, A.D. 2027-Jan-02 00:00:00.0000, -2.927206200905073E+08, -2.749488190737705E+08, -2.937963983026046E+07,
2461414.500000000, A.D. 2027-Jan-09 00:00:00.0000, -2.838173122107475E+08, -2.816210483975505E+08, -2.863735957652017E+07,
2461421.500000000, A.D. 2027-Jan-16 00:00:00.0000, -2.747000835881709E+08, -2.880810249402375E+08, -2.787349663926758E+07,
2461428.500000000, A.D. 2027-Jan-23 00:00:00.0000, -2.653729615607940E+08, -2.943208966335520E+08, -2.708833826569724E+07,
2461435.500000000, A.D. 2027-Jan-30 00:00:00.0000, -2.558402786337533E+08, -3.003327969650524E+08, -2.628219928785720E+07,
2461442.500000000, A.D. 2027-Feb-06 00:00:00.0000, -2.461066811138216E+08, -3.061088566208345E+08, -2.545542318406369E+07,
2461449.500000000, A.D. 2027-Feb-13 00:00:00.0000, -2.361771373304740E+08, -3.116412146858258E+08, -2.460838303421617E+07,
2461456.500000000, A.D. 2027-Feb-20 00:00:00.0000, -2.260569477398069E+08, -3.169220302198008E+08, -2.374148221086079E+07,
2461463.500000000, A.D. 2027-Feb-27 00:00:00.0000, -2.157517554415123E+08, -3.219434974460502E+08, -2.285515519010548E+07,
2461470.500000000, A.D. 2027-Mar-06 00:00:00.0000, -2.052675540112841E+08, -3.266978626484575E+08, -2.194986859472117E+07,
2461477.500000000, A.D. 2027-Mar-13 00:00:00.0000, -1.946106941614261E+08, -3.311774407385582E+08, -2.102612214683174E+07,
2461484.500000000, A.D. 2027-Mar-20 00:00:00.0000, -1.837878902630570E+08, -3.353746323325070E+08, -2.008444948613945E+07,
2461491.500000000, A.D. 2027-Mar-27 00:00:00.0000, -1.728062264262698E+08, -3.392819418882915E+08, -1.912541890862241E+07,
2461498.500000000, A.D. 2027-Apr-03 00:00:00.0000, -1.616731618310279E+08, -3.428919969473367E+08, -1.814963403988098E+07,
2461505.500000000, A.D. 2027-Apr-10 00:00:00.0000, -1.503965351417879E+08, -3.461975684458428E+08, -1.715773443805104E+07,
2461512.500000000, A.D. 2027-Apr-17 00:00:00.0000, -1.389845678759393E+08, -3.491915920871935E+08, -1.615039611965165E+07,
2461519.500000000, A.D. 2027-Apr-24 00:00:00.0000, -1.274458665355556E+08, -3.518671908013572E+08, -1.512833200986320E+07,
2461526.500000000, A.D. 2027-May-01 00:00:00.0000, -1.157894230878510E+08, -3.542176982139667E+08, -1.409229233099510E+07,
2461533.500000000, A.D. 2027-May-08 00:00:00.0000, -1.040246133698291E+08, -3.562366823142174E+08, -1.304306488449003E+07,
2461540.500000000, A.D. 2027-May-15 00:00:00.0000, -9.216119479657717E+07, -3.579179682916070E+08, -1.198147499951635E+07,
2461547.500000000, A.D. 2027-May-22 00:00:00.0000, -8.020930482039303E+07, -3.592556630417947E+08, -1.090838520496546E+07,
2461554.500000000, A.D. 2027-May-29 00:00:00.0000, -6.817945667139119E+07, -3.602441827058337E+08, -9.824695041455090E+06,
2461561.500000000, A.D. 2027-Jun-05 00:00:00.0000, -5.608253138822351E+07, -3.608782799934443E+08, -8.731340827493295E+06,
2461568.500000000, A.D. 2027-Jun-12 00:00:00.0000, -4.392976804766112E+07, -3.611530707235138E+08, -7.629295149478853E+06,
2461575.500000000, A.D. 2027-Jun-19 00:00:00.0000, -3.173275243352835E+07, -3.610640603642659E+08, -6.519566111205548E+06,
2461582.500000000, A.D. 2027-Jun-26 00:00:00.0000, -1.950340378501732E+07, -3.606071706656296E+08, -5.403196380385920E+06,
2461589.500000000, A.D. 2027-Jul-03 00:00:00.0000, -7.253959423346484E+06, -3.597787661920228E+08, -4.281262035497531E+06,
2461596.500000000, A.D. 2027-Jul-10 00:00:00.0000, 5.003042835306681E+06, -3.585756805514936E+08, -3.154871209149450E+06,
2461603.500000000, A.D. 2027-Jul-17 00:00:00.0000, 1.725478455475818E+07, -3.569952421561599E+08, -2.025162529616535E+06,
2461610.500000000, A.D. 2027-Jul-24 00:00:00.0000, 2.948818901413134E+07, -3.550352993649982E+08, -8.933033765977025E+05,
2461617.500000000, A.D. 2027-Jul-31 00:00:00.0000, 4.168994640687771E+07, -3.526942445531645E+08, 2.395120321626812E+05,
2461624.500000000, A.D. 2027-Aug-07 00:00:00.0000, 5.384654166976299E+07, -3.499710357277086E+08, 1.372064835808456E+06,
2461631.500000000, A.D. 2027-Aug-14 00:00:00.0000, 6.594428258218269E+07, -3.468652157077809E+08, 2.503114194710463E+06,
2461638.500000000, A.D. 2027-Aug-21 00:00:00.0000, 7.796932867050306E+07, -3.433769319949790E+08, 3.631400087316424E+06,
2461645.500000000, A.D. 2027-Aug-28 00:00:00.0000, 8.990772423947351E+07, -3.395069558966228E+08, 4.755646015327349E+06,
2461652.500000000, A.D. 2027-Sep-04 00:00:00.0000, 1.017454342123502E+08, -3.352566981739800E+08, 5.874561919810876E+06,
2461659.500000000, A.D. 2027-Sep-11 00:00:00.0000, 1.134683812187443E+08, -3.306282216599425E+08, 6.986847369324833E+06,
2461666.500000000, A.D. 2027-Sep-18 00:00:00.0000, 1.250624838706213E+08, -3.256242512921724E+08, 8.091194939128533E+06,
2461673.500000000, A.D. 2027-Sep-25 00:00:00.0000, 1.365136962363945E+08, -3.202481814524328E+08, 9.186293735984430E+06,
2461680.500000000, A.D. 2027-Oct-02 00:00:00.0000, 1.478080483442649E+08, -3.145040804182613E+08, 1.027083304321276E+07,
2461687.500000000, A.D. 2027-Oct-09 00:00:00.0000, 1.589316874710510E+08, -3.083966917885143E+08, 1.134350606029847E+07,
2461694.500000000, A.D. 2027-Oct-16 00:00:00.0000, 1.698709199956778E+08, -3.019314328219362E+08, 1.240301370131028E+07,
2461701.500000000, A.D. 2027-Oct-23 00:00:00.0000, 1.806122537793594E+08, -2.951143896117778E+08, 1.344806840111895E+07,
2461708.500000000, A.D. 2027-Oct-30 00:00:00.0000, 1.911424411371489E+08, -2.879523084402340E+08, 1.447739791756596E+07,
2461715.500000000, A.D. 2027-Nov-06 00:00:00.0000, 2.014485209171496E+08, -2.804525821749711E+08, 1.548974930028400E+07,
2461722.500000000, A.D. 2027-Nov-13 00:00:00.0000, 2.115178573754456E+08, -2.726232338083359E+08, 1.648389300922386E+07,
2461729.500000000, A.D. 2027-Nov-20 00:00:00.0000, 2.213381784224567E+08, -2.644728993838538E+08, 1.745862670801602E+07,
2461736.500000000, A.D. 2027-Nov-27 00:00:00.0000, 2.308976145382751E+08, -2.560108074423245E+08, 1.841277879620427E+07,
2461743.500000000, A.D. 2027-Dec-04 00:00:00.0000, 2.401847360225028E+08, -2.472467542058935E+08, 1.934521191084465E+07,
2461750.500000000, A.D. 2027-Dec-11 00:00:00.0000, 2.491885877332472E+08, -2.381910756269364E+08, 2.025482633945099E+07,
2461757.500000000, A.D. 2027-Dec-18 00:00:00.0000, 2.578987213211196E+08, -2.288546168352092E+08, 2.114056326319063E+07,
2461764.500000000, A.D. 2027-Dec-25 00:00:00.0000, 2.663052248712620E+08, -2.192486992142658E+08, 2.200140779146571E+07,
2461771.500000000, A.D. 2028-Jan-01 00:00:00.0000, 2.743987497846444E+08, -2.093850853543969E+08, 2.283639176443151E+07,
$$EOE